#dP2020  9 12  0  0  0.00000000     289 d+D   IGb14 FIT AIUB
## 2122 518400.00000000   300.00000000 59104 0.0000000000000
+   90   G01G02G03G04G05G06G07G08G09G10G11G12G13G15G16G17G18
+        G19G20G21G22G23G24G25G26G27G28G29G30G31G32R01R02R03
+        R04R05R07R08R11R12R13R14R15R16R17R18R19R20R21R22R23
+        R24R26E01E02E03E04E05E07E08E09E11E12E13E14E15E18E19
+        E21E24E25E26E27E30E31E33E36C06C07C08C09C10C11C12C13
+        C14C16J01J02J03  0  0  0  0  0  0  0  0  0  0  0  0
++         5  5  5  5  5  5  5  5  5  5  5  5  5  5  5  5  5
++         5  5  5  5  5  5  5  5  5  5  5  5  5  5  5  5  5
++         5  5  5  5  5  5  5  5  5  5  5  5  5  5  5  5  5
++         5  5  5  5  5  5  5  5  5  5  5  5  5  5  5  5  5
++         5  5  5  5  5  5  5  5  5  5  5  5  5  5  5  5  5
++         5  5  5  5  5  0  0  0  0  0  0  0  0  0  0  0  0
%c M  cc GPS ccc cccc cccc cccc cccc ccccc ccccc ccccc ccccc
%c cc cc ccc ccc cccc cccc cccc cccc ccccc ccccc ccccc ccccc
%f  1.2500000  1.025000000  0.00000000000  0.000000000000000
%f  0.0000000  0.000000000  0.00000000000  0.000000000000000
%i    0    0    0    0      0      0      0      0         0
%i    0    0    0    0      0      0      0      0         0
/* Center for Orbit Determination in Europe (CODE)                              
/* MGEX orbits and clocks for year-day 2020-2560                                
/* Middle day of a 3-day long-arc multi-GNSS solution                           
/* Systems considered: GPS/GLONASS/Galileo/BeiDou/QZSS                          
/* Product reference - DOI 10.7892/boris.75882.3                                
/* PCV:IGS14      OL/AL:FES2014b NONE     YN ORB:CoN CLK:CoN                    
*  2020  9 12  2 35  0.00000000
PG01 -20887.687548 -14850.806690  -7834.131922     36.077873
PG02   1831.824413  16484.205315  21397.632956   -515.217734
PG03 -12542.681553 -18004.879547  14959.533471   -296.590140
PG04 -14944.902340  -7249.748571  20740.584333   -134.944112
PG05   1755.135803  26192.637972   3140.051942    -20.897028
PG06 -13324.235727   9562.363891  20950.769691   -324.846068
PG07 -25042.042179  -4867.444514  -7916.490621   -370.580852
PG08  -5128.570018 -14676.917954 -21489.249349    -47.655801
PG09 -21942.355572   4103.419365  14348.360015   -284.691161
PG10  12282.038321 -12424.706256 -19842.403702   -452.299283
PG11 -14008.063938 -13358.246156 -18524.477939   -166.809067
PG12  10350.150038  20063.450034  13877.119325     68.393363
PG13  -4734.153454  17835.290456 -19187.767195     44.449229
PG15   7958.266506  14281.143899 -21227.867754   -204.281456
PG16   -359.060859 -26296.088639    611.437578   -207.931087
PG17 -21470.574029  15544.949417   1675.564162    324.631144
PG18  24548.842360   4055.364972  -9370.856626    288.518539
PG19 -18477.593161  17187.947131   7883.186584   -106.070623
PG20  16194.183191    215.892985 -21156.042284    526.767734
PG21    344.651906 -15533.165551 -20854.472925     46.146751
PG22 -10996.818953 -22947.758749   8075.630501   -755.334798
PG23  15125.910299  -1690.819177 -21797.799668     64.244292
PG24  19483.407947  15133.954788 -10527.943903    -18.443566
PG25  14978.305930   8786.100302  19934.787193     47.869126
PG26   6398.367955 -21855.989018  13441.242892    277.311659
PG27   6441.243672 -19238.534107 -17103.172739   -393.501187
PG28 -12260.858505  13707.682008 -18640.347453    679.726803
PG29  20532.950601     35.125186  16834.677535   -192.848951
PG30 -20676.318944   3608.918472 -16348.821968   -300.079120
PG31  12104.536268 -10779.220218  21066.756828    -68.133925
PG32  20300.149430 -16923.281529   1684.832952    345.141776
PR01  -2966.311878  22184.497784 -12225.593641     67.419911
PR02   9320.807930   5756.532830 -23001.600302    445.184346
PR03  14349.134430 -12096.559910 -17211.848297     21.840521
PR04  11096.478475 -22897.580615  -1744.313620     54.237630
PR05   1732.804390 -20746.158619  14730.437922     57.394529
PR07 -14429.084632  12652.927659  16859.402632    -40.060812
PR08 -11173.440027  22870.073045   1854.906228    -54.524577
PR11   -835.323995  15458.149314 -20234.605993    -37.353730
PR12  11363.247038  21564.995738  -7511.018982    163.048024
PR13  17567.103491  15587.290366   9939.193253    -43.757431
PR14  13247.733916    330.685863  21811.146648     55.430252
PR15   1462.514125 -14805.897030  20748.644136    106.960803
PR16 -12106.219855 -21306.936970   6842.812688     -6.263255
PR17  24929.201322  -4180.568759  -3604.410250    357.372683
PR18  14835.437430  -9716.572718 -18304.071879     49.036280
PR19  -2220.505029 -10221.217564 -23267.601327   -110.826879
PR20 -20876.575473  -4696.602647 -13906.468506   -421.584655
PR21 -24643.666952   4548.140551   4656.388609   -151.574116
PR22 -13884.419704   9830.473919  19023.636646    -72.496323
PR23  10254.945499   8769.190965  21637.907146    331.368801
PR24  21379.162066   4478.550618  13205.833848     12.958653
PR26 -17005.356230  -6428.534928 -17866.554715   -362.298861
PE01   7805.251962 -19279.684529  21071.111369   -938.930473
PE02  -7719.987041  19372.645549 -21001.871644    161.001127
PE03 -18308.006130  23236.891478   -703.515793   -341.879336
PE04   3395.612905 -23689.549533  17426.010880   -605.308195
PE05 -22688.705144   9148.808469  16660.362847   -346.856968
PE07  13790.651106  10145.927049 -24142.865635   -434.904186
PE08  -3093.246300  23537.322371 -17670.712591   6121.909900
PE09 -13804.885621  -9891.714192  24245.302433   5933.760280
PE11 -24358.474499 -11730.835944 -12068.460983   5445.602430
PE12  -5073.788869 -16682.637368 -23922.844290   5609.936870
PE13  24237.383126  11715.496456  12313.247361    403.614735
PE14 -19748.695700  16008.743410   3093.903554  -1152.715790
PE15   5358.341591  16588.023908  23925.786471    852.847055
PE18  12576.896513 -23794.703372 -16269.912854  -1259.832820
PE19  19429.252918 -22287.254988  -1415.643413     76.276948
PE21  17363.675639    485.809772  23973.712958   -620.930458
PE24 -16837.744104 -20824.287303 -12596.497542   5248.734240
PE25 -17398.859013   -671.725108 -23924.450881   -516.482591
PE26  28764.563247   -264.129500  -7009.594462   2736.546860
PE27  17053.382272  20436.720597  12961.762232    135.992320
PE30   6198.059586  28295.630560  -6107.848156   3591.701120
PE31  -6707.924614 -28280.551255   5635.349000   -474.074181
PE33  16674.614395 -11706.918102 -21472.429833   -462.846516
PE36 -28869.369385     35.270418   6526.167111    508.630598
PC06 -25220.599222  28414.550039 -18316.189444    245.386734
PC07 -11992.934324  36156.125876 -17245.121613     -4.714653
PC08  -9421.778185  19416.037711  36310.142459   -518.068681
PC09 -11495.357131  28391.573521 -28881.521575    804.306324
PC10  -1729.097931  41537.539432  -5158.707468   -188.961820
PC11 -22667.229506  12951.026662   9832.321887   -615.124292
PC12 -26592.246326   2126.998563  -8094.579241    506.445114
PC13   5073.010032  26800.798258  32308.275123    642.739502
PC14 -14436.061941  19463.438710  13808.401852    264.943070
PC16 -21231.005388  29125.005019 -21933.644346   -589.214068
PJ01 -30235.645963  27274.963516  15801.506405   -347.851093
PJ02 -20387.896119  21189.814606 -25745.458777     -3.563631
PJ03 -30462.005974  27822.754915  13706.254452     -1.050714
EOF
